[{"OBJECT_NAME":"CS2","OBJECT_ID":"2021-088C","EPOCH":"2026-03-09T17:38:11.846112","MEAN_MOTION":15.3325593,"ECCENTRICITY":0.00116375,"INCLINATION":97.3928,"RA_OF_ASC_NODE":134.2907,"ARG_OF_PERICENTER":82.3491,"MEAN_ANOMALY":277.9072,"EPHEMERIS_TYPE":0,"CLASSIFICATION_TYPE":"U","NORAD_CAT_ID":49262,"ELEMENT_SET_NO":999,"REV_AT_EPOCH":24526,"BSTAR":0.0005617759,"MEAN_MOTION_DOT":0.00018033,"MEAN_MOTION_DDOT":0},{"OBJECT_NAME":"JILIN-1 GAOFEN 03D48","OBJECT_ID":"2022-167P","EPOCH":"2026-03-09T23:48:37.804608","MEAN_MOTION":15.32947339,"ECCENTRICITY":0.00075954,"INCLINATION":97.6781,"RA_OF_ASC_NODE":234.4968,"ARG_OF_PERICENTER":111.3084,"MEAN_ANOMALY":248.8969,"EPHEMERIS_TYPE":0,"CLASSIFICATION_TYPE":"U","NORAD_CAT_ID":54695,"ELEMENT_SET_NO":999,"REV_AT_EPOCH":18018,"BSTAR":0.00049677114,"MEAN_MOTION_DOT":0.00015755,"MEAN_MOTION_DDOT":0}]
